{"fetched_at":"2026-07-15T06:35:32.501Z","source":"https://celestrak.org/NORAD/elements/gp.php?GROUP=oneweb&FORMAT=JSON","constellation":"oneweb","records":[{"OBJECT_NAME":"ONEWEB-0291","OBJECT_ID":"2021-075G","EPOCH":"2026-07-14T21:07:11.490240","CLASSIFICATION_TYPE":"U","MEAN_MOTION":13.17646804,"ECCENTRICITY":0.00021171,"INCLINATION":87.9145,"RA_OF_ASC_NODE":0.3531,"ARG_OF_PERICENTER":85.0581,"MEAN_ANOMALY":275.0792,"EPHEMERIS_TYPE":0,"NORAD_CAT_ID":49081,"ELEMENT_SET_NO":999,"REV_AT_EPOCH":23725,"BSTAR":-0.000022509608,"MEAN_MOTION_DOT":4e-8,"MEAN_MOTION_DDOT":0},{"OBJECT_NAME":"ONEWEB-0293","OBJECT_ID":"2021-075H","EPOCH":"2026-07-14T21:43:36.612768","CLASSIFICATION_TYPE":"U","MEAN_MOTION":13.17650135,"ECCENTRICITY":0.00020199,"INCLINATION":87.9145,"RA_OF_ASC_NODE":0.3504,"ARG_OF_PERICENTER":92.9344,"MEAN_ANOMALY":267.2019,"EPHEMERIS_TYPE":0,"NORAD_CAT_ID":49082,"ELEMENT_SET_NO":999,"REV_AT_EPOCH":23728,"BSTAR":-0.000005425619,"MEAN_MOTION_DOT":1.1e-7,"MEAN_MOTION_DDOT":0},{"OBJECT_NAME":"ONEWEB-0294","OBJECT_ID":"2021-075J","EPOCH":"2026-07-14T20:27:02.220192","CLASSIFICATION_TYPE":"U","MEAN_MOTION":13.12443903,"ECCENTRICITY":0.00021888,"INCLINATION":87.897,"RA_OF_ASC_NODE":345.159,"ARG_OF_PERICENTER":97.3464,"MEAN_ANOMALY":262.7913,"EPHEMERIS_TYPE":0,"NORAD_CAT_ID":49083,"ELEMENT_SET_NO":999,"REV_AT_EPOCH":23820,"BSTAR":0.0004400004,"MEAN_MOTION_DOT":0.00000171,"MEAN_MOTION_DDOT":0},{"OBJECT_NAME":"ONEWEB-0295","OBJECT_ID":"2021-075K","EPOCH":"2026-07-14T21:42:24.309792","CLASSIFICATION_TYPE":"U","MEAN_MOTION":13.17649854,"ECCENTRICITY":0.00019944,"INCLINATION":87.9144,"RA_OF_ASC_NODE":0.3548,"ARG_OF_PERICENTER":85.1847,"MEAN_ANOMALY":274.9512,"EPHEMERIS_TYPE":0,"NORAD_CAT_ID":49084,"ELEMENT_SET_NO":999,"REV_AT_EPOCH":23724,"BSTAR":0.000039274041,"MEAN_MOTION_DOT":2.8e-7,"MEAN_MOTION_DDOT":0},{"OBJECT_NAME":"ONEWEB-0296","OBJECT_ID":"2021-075L","EPOCH":"2026-07-14T21:47:32.054496","CLASSIFICATION_TYPE":"U","MEAN_MOTION":13.12443135,"ECCENTRICITY":0.00020459,"INCLINATION":87.8969,"RA_OF_ASC_NODE":345.156,"ARG_OF_PERICENTER":87.7794,"MEAN_ANOMALY":272.3569,"EPHEMERIS_TYPE":0,"NORAD_CAT_ID":49085,"ELEMENT_SET_NO":999,"REV_AT_EPOCH":23821,"BSTAR":-0.0011820298,"MEAN_MOTION_DOT":-0.00000413,"MEAN_MOTION_DDOT":0},{"OBJECT_NAME":"ONEWEB-0297","OBJECT_ID":"2021-075M","EPOCH":"2026-07-14T20:41:40.550496","CLASSIFICATION_TYPE":"U","MEAN_MOTION":13.12442632,"ECCENTRICITY":0.00018605,"INCLINATION":87.8958,"RA_OF_ASC_NODE":345.1721,"ARG_OF_PERICENTER":92.4306,"MEAN_ANOMALY":267.7035,"EPHEMERIS_TYPE":0,"NORAD_CAT_ID":49086,"ELEMENT_SET_NO":999,"REV_AT_EPOCH":23881,"BSTAR":0.0009891607,"MEAN_MOTION_DOT":0.00000369,"MEAN_MOTION_DDOT":0},{"OBJECT_NAME":"ONEWEB-0298","OBJECT_ID":"2021-075N","EPOCH":"2026-07-14T21:48:42.341760","CLASSIFICATION_TYPE":"U","MEAN_MOTION":13.17649253,"ECCENTRICITY":0.00017384,"INCLINATION":87.9146,"RA_OF_ASC_NODE":0.3522,"ARG_OF_PERICENTER":90.1183,"MEAN_ANOMALY":270.0148,"EPHEMERIS_TYPE":0,"NORAD_CAT_ID":49087,"ELEMENT_SET_NO":999,"REV_AT_EPOCH":23727,"BSTAR":0.00003104771,"MEAN_MOTION_DOT":2.5e-7,"MEAN_MOTION_DDOT":0},{"OBJECT_NAME":"ONEWEB-0299","OBJECT_ID":"2021-075P","EPOCH":"2026-07-14T21:50:54.655584","CLASSIFICATION_TYPE":"U","MEAN_MOTION":13.17648154,"ECCENTRICITY":0.00018415,"INCLINATION":87.9156,"RA_OF_ASC_NODE":0.3345,"ARG_OF_PERICENTER":86.9606,"MEAN_ANOMALY":273.1737,"EPHEMERIS_TYPE":0,"NORAD_CAT_ID":49088,"ELEMENT_SET_NO":999,"REV_AT_EPOCH":23725,"BSTAR":0.000024887392,"MEAN_MOTION_DOT":2.3e-7,"MEAN_MOTION_DDOT":0},{"OBJECT_NAME":"ONEWEB-0300","OBJECT_ID":"2021-075Q","EPOCH":"2026-07-14T20:30:41.747040","CLASSIFICATION_TYPE":"U","MEAN_MOTION":13.12443262,"ECCENTRICITY":0.00014908,"INCLINATION":87.8971,"RA_OF_ASC_NODE":345.1563,"ARG_OF_PERICENTER":94.8469,"MEAN_ANOMALY":265.2829,"EPHEMERIS_TYPE":0,"NORAD_CAT_ID":49089,"ELEMENT_SET_NO":999,"REV_AT_EPOCH":23883,"BSTAR":0.00073118192,"MEAN_MOTION_DOT":0.00000276,"MEAN_MOTION_DDOT":0},{"OBJECT_NAME":"ONEWEB-0301","OBJECT_ID":"2021-075R","EPOCH":"2026-07-14T21:57:17.282304","CLASSIFICATION_TYPE":"U","MEAN_MOTION":13.12443767,"ECCENTRICITY":0.00015413,"INCLINATION":87.8968,"RA_OF_ASC_NODE":345.1421,"ARG_OF_PERICENTER":100.2418,"MEAN_ANOMALY":259.8884,"EPHEMERIS_TYPE":0,"NORAD_CAT_ID":49090,"ELEMENT_SET_NO":999,"REV_AT_EPOCH":23820,"BSTAR":-0.00079385286,"MEAN_MOTION_DOT":-0.00000273,"MEAN_MOTION_DDOT":0},{"OBJECT_NAME":"ONEWEB-0302","OBJECT_ID":"2021-075S","EPOCH":"2026-07-14T21:37:46.761888","CLASSIFICATION_TYPE":"U","MEAN_MOTION":13.12441303,"ECCENTRICITY":0.00021836,"INCLINATION":87.8967,"RA_OF_ASC_NODE":345.1569,"ARG_OF_PERICENTER":94.6716,"MEAN_ANOMALY":265.4662,"EPHEMERIS_TYPE":0,"NORAD_CAT_ID":49091,"ELEMENT_SET_NO":999,"REV_AT_EPOCH":23818,"BSTAR":-0.0013252836,"MEAN_MOTION_DOT":-0.00000464,"MEAN_MOTION_DDOT":0},{"OBJECT_NAME":"ONEWEB-0304","OBJECT_ID":"2021-075T","EPOCH":"2026-07-14T21:14:27.596832","CLASSIFICATION_TYPE":"U","MEAN_MOTION":13.17647192,"ECCENTRICITY":0.0001926,"INCLINATION":87.9142,"RA_OF_ASC_NODE":0.3597,"ARG_OF_PERICENTER":86.9238,"MEAN_ANOMALY":273.2114,"EPHEMERIS_TYPE":0,"NORAD_CAT_ID":49092,"ELEMENT_SET_NO":999,"REV_AT_EPOCH":23722,"BSTAR":0.000077837341,"MEAN_MOTION_DOT":4.3e-7,"MEAN_MOTION_DDOT":0},{"OBJECT_NAME":"ONEWEB-0305","OBJECT_ID":"2021-075U","EPOCH":"2026-07-14T21:04:44.472000","CLASSIFICATION_TYPE":"U","MEAN_MOTION":13.17647603,"ECCENTRICITY":0.00019288,"INCLINATION":87.9152,"RA_OF_ASC_NODE":0.3475,"ARG_OF_PERICENTER":80.3265,"MEAN_ANOMALY":279.8084,"EPHEMERIS_TYPE":0,"NORAD_CAT_ID":49093,"ELEMENT_SET_NO":999,"REV_AT_EPOCH":23725,"BSTAR":-0.000046141795,"MEAN_MOTION_DOT":-5e-8,"MEAN_MOTION_DDOT":0},{"OBJECT_NAME":"ONEWEB-0308","OBJECT_ID":"2021-075V","EPOCH":"2026-07-14T21:28:00.775488","CLASSIFICATION_TYPE":"U","MEAN_MOTION":13.12442037,"ECCENTRICITY":0.00018388,"INCLINATION":87.8971,"RA_OF_ASC_NODE":345.1505,"ARG_OF_PERICENTER":96.2582,"MEAN_ANOMALY":263.8756,"EPHEMERIS_TYPE":0,"NORAD_CAT_ID":49094,"ELEMENT_SET_NO":999,"REV_AT_EPOCH":23819,"BSTAR":-0.00073362553,"MEAN_MOTION_DOT":-0.00000251,"MEAN_MOTION_DDOT":0},{"OBJECT_NAME":"ONEWEB-0309","OBJECT_ID":"2021-075W","EPOCH":"2026-07-14T21:09:35.596800","CLASSIFICATION_TYPE":"U","MEAN_MOTION":13.17649995,"ECCENTRICITY":0.00023662,"INCLINATION":87.9144,"RA_OF_ASC_NODE":0.3534,"ARG_OF_PERICENTER":93.2617,"MEAN_ANOMALY":266.8786,"EPHEMERIS_TYPE":0,"NORAD_CAT_ID":49095,"ELEMENT_SET_NO":999,"REV_AT_EPOCH":23722,"BSTAR":-0.00015929807,"MEAN_MOTION_DOT":-4.9e-7,"MEAN_MOTION_DDOT":0},{"OBJECT_NAME":"ONEWEB-0310","OBJECT_ID":"2021-075X","EPOCH":"2026-07-14T21:49:58.024704","CLASSIFICATION_TYPE":"U","MEAN_MOTION":13.12443837,"ECCENTRICITY":0.00018689,"INCLINATION":87.8962,"RA_OF_ASC_NODE":345.1666,"ARG_OF_PERICENTER":96.255,"MEAN_ANOMALY":263.8792,"EPHEMERIS_TYPE":0,"NORAD_CAT_ID":49096,"ELEMENT_SET_NO":999,"REV_AT_EPOCH":23882,"BSTAR":-0.0013500263,"MEAN_MOTION_DOT":-0.00000473,"MEAN_MOTION_DDOT":0}]}
